ONEWEB-0629             
1 55170U 23004AG  25261.86951412  .00000025  00000+0  31999-4 0  9990
2 55170  87.9053  59.8463 0001806  83.3360 276.7978 13.17648694131858
ONEWEB-0631             
1 55171U 23004AH  25261.91851853  .00000008  00000+0 -12602-4 0  9997
2 55171  87.9200  29.2966 0002125 112.5853 247.5504 13.18683841133924
ONEWEB-0709             
1 55172U 23004AJ  25262.19820202 -.00000409  00000+0 -11906-2 0  9993
2 55172  87.8775  75.0748 0001588 123.0449 237.0832 13.11415678130354
ONEWEB-0710             
1 55173U 23004AK  25262.26352096  .00000056  00000+0  11065-3 0  9996
2 55173  87.9048  59.7632 0001928  92.3410 267.7943 13.17646920131901
ONEWEB-0711             
1 55174U 23004AL  25262.24569438  .00000510  00000+0  14023-2 0  9996
2 55174  87.8782  75.0330 0002502  87.0033 273.1381 13.11415679130324
ONEWEB-0713             
1 55175U 23004AM  25262.18803427 -.00000086  00000+0 -27724-3 0  9992
2 55175  87.8774  75.0514 0001979  89.2351 270.9004 13.11415942130302
ONEWEB-0715             
1 55176U 23004AN  25262.18295964  .00000128  00000+0  32456-3 0  9997
2 55176  87.8772  75.0528 0001948 112.5988 247.5346 13.11416641130348
ONEWEB-0716             
1 55177U 23004AP  25262.18084233  .00000005  00000+0 -19360-4 0  9998
2 55177  87.9049  59.7793 0001549  90.0666 270.0644 13.17648750131897
ONEWEB-0717             
1 55178U 23004AQ  25262.16396149  .00000054  00000+0  10569-3 0  9993
2 55178  87.9058  59.7461 0002491  95.0477 265.0939 13.17648914131941
ONEWEB-0719             
1 55179U 23004AR  25262.25002406  .00000032  00000+0  49122-4 0  9998
2 55179  87.9058  59.7115 0001675  86.5075 273.6248 13.17647188131906
ONEWEB-0530             
1 55796U 23029A   25262.10841993 -.00000093  00000+0 -26155-3 0  9995
2 55796  87.9279 328.5312 0002316  93.3360 266.8038 13.20771528125362
ONEWEB-0534             
1 55797U 23029B   25262.17153677 -.00001424  00000+0 -35334-2 0  9995
2 55797  87.9281 328.5213 0001712 104.9558 255.1765 13.20778850125377
ONEWEB-0556             
1 55798U 23029C   25262.17787176  .00000011  00000+0 -36743-5 0  9991
2 55798  87.9269 328.5180 0001929  73.4517 286.6828 13.20771963125379
ONEWEB-0562             
1 55799U 23029D   25262.16523349  .00000027  00000+0  33297-4 0  9997
2 55799  87.9262 328.5077 0002509  80.3771 279.7645 13.20770096125378
ONEWEB-0563             
1 55800U 23029E   25262.15887877  .00000061  00000+0  11790-3 0  9999
2 55800  87.9264 328.5318 0001634  98.3212 261.8107 13.20774963125369
ONEWEB-0564             
1 55801U 23029F   25261.69806292  .00000022  00000+0  21142-4 0  9990
2 55801  87.9266 328.6035 0002207  91.7976 268.3411 13.20770123125319
ONEWEB-0638             
1 55802U 23029G   25261.72868549 -.00000126  00000+0 -37455-3 0  9998
2 55802  87.9086 343.8236 0001902  84.4335 275.7012 13.14504053123734
