[{"OBJECT_NAME":"ONEWEB-0629","OBJECT_ID":"2023-004AG","EPOCH":"2025-09-18T20:52:06.019968","MEAN_MOTION":13.17648694,"ECCENTRICITY":0.00018069,"INCLINATION":87.9053,"RA_OF_ASC_NODE":59.8463,"ARG_OF_PERICENTER":83.336,"MEAN_ANOMALY":276.7978,"EPHEMERIS_TYPE":0,"CLASSIFICATION_TYPE":"U","NORAD_CAT_ID":55170,"ELEMENT_SET_NO":999,"REV_AT_EPOCH":13185,"BSTAR":3.1999406e-5,"MEAN_MOTION_DOT":2.5e-7,"MEAN_MOTION_DDOT":0},{"OBJECT_NAME":"ONEWEB-0631","OBJECT_ID":"2023-004AH","EPOCH":"2025-09-18T22:02:40.000992","MEAN_MOTION":13.18683841,"ECCENTRICITY":0.00021255,"INCLINATION":87.92,"RA_OF_ASC_NODE":29.2966,"ARG_OF_PERICENTER":112.5853,"MEAN_ANOMALY":247.5504,"EPHEMERIS_TYPE":0,"CLASSIFICATION_TYPE":"U","NORAD_CAT_ID":55171,"ELEMENT_SET_NO":999,"REV_AT_EPOCH":13392,"BSTAR":-1.2602031e-5,"MEAN_MOTION_DOT":8.0e-8,"MEAN_MOTION_DDOT":0},{"OBJECT_NAME":"ONEWEB-0709","OBJECT_ID":"2023-004AJ","EPOCH":"2025-09-19T04:45:24.654528","MEAN_MOTION":13.11415678,"ECCENTRICITY":0.00015887,"INCLINATION":87.8775,"RA_OF_ASC_NODE":75.0748,"ARG_OF_PERICENTER":123.0449,"MEAN_ANOMALY":237.0832,"EPHEMERIS_TYPE":0,"CLASSIFICATION_TYPE":"U","NORAD_CAT_ID":55172,"ELEMENT_SET_NO":999,"REV_AT_EPOCH":13035,"BSTAR":-0.0011906166,"MEAN_MOTION_DOT":-4.09e-6,"MEAN_MOTION_DDOT":0},{"OBJECT_NAME":"ONEWEB-0710","OBJECT_ID":"2023-004AK","EPOCH":"2025-09-19T06:19:28.210944","MEAN_MOTION":13.1764692,"ECCENTRICITY":0.00019281,"INCLINATION":87.9048,"RA_OF_ASC_NODE":59.7632,"ARG_OF_PERICENTER":92.341,"MEAN_ANOMALY":267.7943,"EPHEMERIS_TYPE":0,"CLASSIFICATION_TYPE":"U","NORAD_CAT_ID":55173,"ELEMENT_SET_NO":999,"REV_AT_EPOCH":13190,"BSTAR":0.00011065349,"MEAN_MOTION_DOT":5.6e-7,"MEAN_MOTION_DDOT":0},{"OBJECT_NAME":"ONEWEB-0711","OBJECT_ID":"2023-004AL","EPOCH":"2025-09-19T05:53:47.994432","MEAN_MOTION":13.11415679,"ECCENTRICITY":0.0002502,"INCLINATION":87.8782,"RA_OF_ASC_NODE":75.033,"ARG_OF_PERICENTER":87.0033,"MEAN_ANOMALY":273.1381,"EPHEMERIS_TYPE":0,"CLASSIFICATION_TYPE":"U","NORAD_CAT_ID":55174,"ELEMENT_SET_NO":999,"REV_AT_EPOCH":13032,"BSTAR":0.0014023182,"MEAN_MOTION_DOT":5.1e-6,"MEAN_MOTION_DDOT":0},{"OBJECT_NAME":"ONEWEB-0713","OBJECT_ID":"2023-004AM","EPOCH":"2025-09-19T04:30:46.160928","MEAN_MOTION":13.11415942,"ECCENTRICITY":0.00019793,"INCLINATION":87.8774,"RA_OF_ASC_NODE":75.0514,"ARG_OF_PERICENTER":89.2351,"MEAN_ANOMALY":270.9004,"EPHEMERIS_TYPE":0,"CLASSIFICATION_TYPE":"U","NORAD_CAT_ID":55175,"ELEMENT_SET_NO":999,"REV_AT_EPOCH":13030,"BSTAR":-0.000277242,"MEAN_MOTION_DOT":-8.6e-7,"MEAN_MOTION_DDOT":0},{"OBJECT_NAME":"ONEWEB-0715","OBJECT_ID":"2023-004AN","EPOCH":"2025-09-19T04:23:27.712896","MEAN_MOTION":13.11416641,"ECCENTRICITY":0.0001948,"INCLINATION":87.8772,"RA_OF_ASC_NODE":75.0528,"ARG_OF_PERICENTER":112.5988,"MEAN_ANOMALY":247.5346,"EPHEMERIS_TYPE":0,"CLASSIFICATION_TYPE":"U","NORAD_CAT_ID":55176,"ELEMENT_SET_NO":999,"REV_AT_EPOCH":13034,"BSTAR":0.00032456383,"MEAN_MOTION_DOT":1.28e-6,"MEAN_MOTION_DDOT":0},{"OBJECT_NAME":"ONEWEB-0716","OBJECT_ID":"2023-004AP","EPOCH":"2025-09-19T04:20:24.777312","MEAN_MOTION":13.1764875,"ECCENTRICITY":0.00015491,"INCLINATION":87.9049,"RA_OF_ASC_NODE":59.7793,"ARG_OF_PERICENTER":90.0666,"MEAN_ANOMALY":270.0644,"EPHEMERIS_TYPE":0,"CLASSIFICATION_TYPE":"U","NORAD_CAT_ID":55177,"ELEMENT_SET_NO":999,"REV_AT_EPOCH":13189,"BSTAR":-1.9359549e-5,"MEAN_MOTION_DOT":5.0e-8,"MEAN_MOTION_DDOT":0},{"OBJECT_NAME":"ONEWEB-0717","OBJECT_ID":"2023-004AQ","EPOCH":"2025-09-19T03:56:06.272736","MEAN_MOTION":13.17648914,"ECCENTRICITY":0.0002491,"INCLINATION":87.9058,"RA_OF_ASC_NODE":59.7461,"ARG_OF_PERICENTER":95.0477,"MEAN_ANOMALY":265.0939,"EPHEMERIS_TYPE":0,"CLASSIFICATION_TYPE":"U","NORAD_CAT_ID":55178,"ELEMENT_SET_NO":999,"REV_AT_EPOCH":13194,"BSTAR":0.00010568899,"MEAN_MOTION_DOT":5.4e-7,"MEAN_MOTION_DDOT":0},{"OBJECT_NAME":"ONEWEB-0719","OBJECT_ID":"2023-004AR","EPOCH":"2025-09-19T06:00:02.078784","MEAN_MOTION":13.17647188,"ECCENTRICITY":0.00016757,"INCLINATION":87.9058,"RA_OF_ASC_NODE":59.7115,"ARG_OF_PERICENTER":86.5075,"MEAN_ANOMALY":273.6248,"EPHEMERIS_TYPE":0,"CLASSIFICATION_TYPE":"U","NORAD_CAT_ID":55179,"ELEMENT_SET_NO":999,"REV_AT_EPOCH":13190,"BSTAR":4.9122119e-5,"MEAN_MOTION_DOT":3.2e-7,"MEAN_MOTION_DDOT":0},{"OBJECT_NAME":"ONEWEB-0530","OBJECT_ID":"2023-029A","EPOCH":"2025-09-19T02:36:07.481952","MEAN_MOTION":13.20771528,"ECCENTRICITY":0.00023168,"INCLINATION":87.9279,"RA_OF_ASC_NODE":328.5312,"ARG_OF_PERICENTER":93.336,"MEAN_ANOMALY":266.8038,"EPHEMERIS_TYPE":0,"CLASSIFICATION_TYPE":"U","NORAD_CAT_ID":55796,"ELEMENT_SET_NO":999,"REV_AT_EPOCH":12536,"BSTAR":-0.00026155364,"MEAN_MOTION_DOT":-9.3e-7,"MEAN_MOTION_DDOT":0},{"OBJECT_NAME":"ONEWEB-0534","OBJECT_ID":"2023-029B","EPOCH":"2025-09-19T04:07:00.776928","MEAN_MOTION":13.2077885,"ECCENTRICITY":0.00017124,"INCLINATION":87.9281,"RA_OF_ASC_NODE":328.5213,"ARG_OF_PERICENTER":104.9558,"MEAN_ANOMALY":255.1765,"EPHEMERIS_TYPE":0,"CLASSIFICATION_TYPE":"U","NORAD_CAT_ID":55797,"ELEMENT_SET_NO":999,"REV_AT_EPOCH":12537,"BSTAR":-0.0035333823,"MEAN_MOTION_DOT":-1.424e-5,"MEAN_MOTION_DDOT":0},{"OBJECT_NAME":"ONEWEB-0556","OBJECT_ID":"2023-029C","EPOCH":"2025-09-19T04:16:08.120064","MEAN_MOTION":13.20771963,"ECCENTRICITY":0.00019292,"INCLINATION":87.9269,"RA_OF_ASC_NODE":328.518,"ARG_OF_PERICENTER":73.4517,"MEAN_ANOMALY":286.6828,"EPHEMERIS_TYPE":0,"CLASSIFICATION_TYPE":"U","NORAD_CAT_ID":55798,"ELEMENT_SET_NO":999,"REV_AT_EPOCH":12537,"BSTAR":-3.674262e-6,"MEAN_MOTION_DOT":1.1e-7,"MEAN_MOTION_DDOT":0},{"OBJECT_NAME":"ONEWEB-0562","OBJECT_ID":"2023-029D","EPOCH":"2025-09-19T03:57:56.173536","MEAN_MOTION":13.20770096,"ECCENTRICITY":0.00025095,"INCLINATION":87.9262,"RA_OF_ASC_NODE":328.5077,"ARG_OF_PERICENTER":80.3771,"MEAN_ANOMALY":279.7645,"EPHEMERIS_TYPE":0,"CLASSIFICATION_TYPE":"U","NORAD_CAT_ID":55799,"ELEMENT_SET_NO":999,"REV_AT_EPOCH":12537,"BSTAR":3.3297419e-5,"MEAN_MOTION_DOT":2.7e-7,"MEAN_MOTION_DDOT":0},{"OBJECT_NAME":"ONEWEB-0563","OBJECT_ID":"2023-029E","EPOCH":"2025-09-19T03:48:47.125728","MEAN_MOTION":13.20774963,"ECCENTRICITY":0.00016346,"INCLINATION":87.9264,"RA_OF_ASC_NODE":328.5318,"ARG_OF_PERICENTER":98.3212,"MEAN_ANOMALY":261.8107,"EPHEMERIS_TYPE":0,"CLASSIFICATION_TYPE":"U","NORAD_CAT_ID":55800,"ELEMENT_SET_NO":999,"REV_AT_EPOCH":12536,"BSTAR":0.00011789947,"MEAN_MOTION_DOT":6.1e-7,"MEAN_MOTION_DDOT":0},{"OBJECT_NAME":"ONEWEB-0564","OBJECT_ID":"2023-029F","EPOCH":"2025-09-18T16:45:12.636288","MEAN_MOTION":13.20770123,"ECCENTRICITY":0.00022079,"INCLINATION":87.9266,"RA_OF_ASC_NODE":328.6035,"ARG_OF_PERICENTER":91.7976,"MEAN_ANOMALY":268.3411,"EPHEMERIS_TYPE":0,"CLASSIFICATION_TYPE":"U","NORAD_CAT_ID":55801,"ELEMENT_SET_NO":999,"REV_AT_EPOCH":12531,"BSTAR":2.1142339e-5,"MEAN_MOTION_DOT":2.2e-7,"MEAN_MOTION_DDOT":0},{"OBJECT_NAME":"ONEWEB-0638","OBJECT_ID":"2023-029G","EPOCH":"2025-09-18T17:29:18.426336","MEAN_MOTION":13.14504053,"ECCENTRICITY":0.00019025,"INCLINATION":87.9086,"RA_OF_ASC_NODE":343.8236,"ARG_OF_PERICENTER":84.4335,"MEAN_ANOMALY":275.7012,"EPHEMERIS_TYPE":0,"CLASSIFICATION_TYPE":"U","NORAD_CAT_ID":55802,"ELEMENT_SET_NO":999,"REV_AT_EPOCH":12373,"BSTAR":-0.00037455091,"MEAN_MOTION_DOT":-1.26e-6,"MEAN_MOTION_DDOT":0}]
